<?xml version="1.0" encoding="UTF-8"?>
<ndm xmlns:xsi="http://www.w3.org/2001/XMLSchema-instance" xsi:noNamespaceSchemaLocation="https://sanaregistry.org/r/ndmxml_unqualified/ndmxml-2.0.0-master-2.0.xsd">
<omm id="CCSDS_OMM_VERS" version="2.0">
<header><CREATION_DATE/><ORIGINATOR/></header><body><segment><metadata><OBJECT_NAME>IRIDIUM 36</OBJECT_NAME><OBJECT_ID>1997-056C</OBJECT_ID><CENTER_NAME>EARTH</CENTER_NAME><REF_FRAME>TEME</REF_FRAME><TIME_SYSTEM>UTC</TIME_SYSTEM><MEAN_ELEMENT_THEORY>SGP4</MEAN_ELEMENT_THEORY></metadata><data><meanElements><EPOCH>2024-12-03T12:54:57.162240</EPOCH><MEAN_MOTION>14.37269418</MEAN_MOTION><ECCENTRICITY>.0002075</ECCENTRICITY><INCLINATION>86.3969</INCLINATION><RA_OF_ASC_NODE>255.1377</RA_OF_ASC_NODE><ARG_OF_PERICENTER>78.8692</ARG_OF_PERICENTER><MEAN_ANOMALY>281.2739</MEAN_ANOMALY></meanElements><tleParameters><EPHEMERIS_TYPE>0</EPHEMERIS_TYPE><CLASSIFICATION_TYPE>U</CLASSIFICATION_TYPE><NORAD_CAT_ID>24967</NORAD_CAT_ID><ELEMENT_SET_NO>999</ELEMENT_SET_NO><REV_AT_EPOCH>42411</REV_AT_EPOCH><BSTAR>.42347E-3</BSTAR><MEAN_MOTION_DOT>.1281E-4</MEAN_MOTION_DOT><MEAN_MOTION_DDOT>0</MEAN_MOTION_DDOT></tleParameters></data></segment></body></omm>
<omm id="CCSDS_OMM_VERS" version="2.0">
<header><CREATION_DATE/><ORIGINATOR/></header><body><segment><metadata><OBJECT_NAME>IRIDIUM 39</OBJECT_NAME><OBJECT_ID>1997-069D</OBJECT_ID><CENTER_NAME>EARTH</CENTER_NAME><REF_FRAME>TEME</REF_FRAME><TIME_SYSTEM>UTC</TIME_SYSTEM><MEAN_ELEMENT_THEORY>SGP4</MEAN_ELEMENT_THEORY></metadata><data><meanElements><EPOCH>2024-12-03T10:01:59.208096</EPOCH><MEAN_MOTION>14.48679892</MEAN_MOTION><ECCENTRICITY>.001587</ECCENTRICITY><INCLINATION>86.3895</INCLINATION><RA_OF_ASC_NODE>295.0728</RA_OF_ASC_NODE><ARG_OF_PERICENTER>236.9042</ARG_OF_PERICENTER><MEAN_ANOMALY>123.0638</MEAN_ANOMALY></meanElements><tleParameters><EPHEMERIS_TYPE>0</EPHEMERIS_TYPE><CLASSIFICATION_TYPE>U</CLASSIFICATION_TYPE><NORAD_CAT_ID>25042</NORAD_CAT_ID><ELEMENT_SET_NO>999</ELEMENT_SET_NO><REV_AT_EPOCH>42061</REV_AT_EPOCH><BSTAR>.5423E-3</BSTAR><MEAN_MOTION_DOT>.2064E-4</MEAN_MOTION_DOT><MEAN_MOTION_DDOT>0</MEAN_MOTION_DDOT></tleParameters></data></segment></body></omm>
<omm id="CCSDS_OMM_VERS" version="2.0">
<header><CREATION_DATE/><ORIGINATOR/></header><body><segment><metadata><OBJECT_NAME>IRIDIUM 38</OBJECT_NAME><OBJECT_ID>1997-069E</OBJECT_ID><CENTER_NAME>EARTH</CENTER_NAME><REF_FRAME>TEME</REF_FRAME><TIME_SYSTEM>UTC</TIME_SYSTEM><MEAN_ELEMENT_THEORY>SGP4</MEAN_ELEMENT_THEORY></metadata><data><meanElements><EPOCH>2024-12-03T11:45:47.542176</EPOCH><MEAN_MOTION>14.37751811</MEAN_MOTION><ECCENTRICITY>.0003498</ECCENTRICITY><INCLINATION>86.3937</INCLINATION><RA_OF_ASC_NODE>315.5136</RA_OF_ASC_NODE><ARG_OF_PERICENTER>57.3167</ARG_OF_PERICENTER><MEAN_ANOMALY>302.8368</MEAN_ANOMALY></meanElements><tleParameters><EPHEMERIS_TYPE>0</EPHEMERIS_TYPE><CLASSIFICATION_TYPE>U</CLASSIFICATION_TYPE><NORAD_CAT_ID>25043</NORAD_CAT_ID><ELEMENT_SET_NO>999</ELEMENT_SET_NO><REV_AT_EPOCH>41783</REV_AT_EPOCH><BSTAR>.4869E-3</BSTAR><MEAN_MOTION_DOT>.1484E-4</MEAN_MOTION_DOT><MEAN_MOTION_DDOT>0</MEAN_MOTION_DDOT></tleParameters></data></segment></body></omm>
<omm id="CCSDS_OMM_VERS" version="2.0">
<header><CREATION_DATE/><ORIGINATOR/></header><body><segment><metadata><OBJECT_NAME>IRIDIUM 42</OBJECT_NAME><OBJECT_ID>1997-077A</OBJECT_ID><CENTER_NAME>EARTH</CENTER_NAME><REF_FRAME>TEME</REF_FRAME><TIME_SYSTEM>UTC</TIME_SYSTEM><MEAN_ELEMENT_THEORY>SGP4</MEAN_ELEMENT_THEORY></metadata><data><meanElements><EPOCH>2024-12-03T12:52:29.150400</EPOCH><MEAN_MOTION>14.36015323</MEAN_MOTION><ECCENTRICITY>.0002792</ECCENTRICITY><INCLINATION>86.3943</INCLINATION><RA_OF_ASC_NODE>321.4238</RA_OF_ASC_NODE><ARG_OF_PERICENTER>76.4111</ARG_OF_PERICENTER><MEAN_ANOMALY>283.7397</MEAN_ANOMALY></meanElements><tleParameters><EPHEMERIS_TYPE>0</EPHEMERIS_TYPE><CLASSIFICATION_TYPE>U</CLASSIFICATION_TYPE><NORAD_CAT_ID>25077</NORAD_CAT_ID><ELEMENT_SET_NO>999</ELEMENT_SET_NO><REV_AT_EPOCH>41311</REV_AT_EPOCH><BSTAR>.43182E-3</BSTAR><MEAN_MOTION_DOT>.1274E-4</MEAN_MOTION_DOT><MEAN_MOTION_DDOT>0</MEAN_MOTION_DDOT></tleParameters></data></segment></body></omm>
<omm id="CCSDS_OMM_VERS" version="2.0">
<header><CREATION_DATE/><ORIGINATOR/></header><body><segment><metadata><OBJECT_NAME>IRIDIUM 44</OBJECT_NAME><OBJECT_ID>1997-077B</OBJECT_ID><CENTER_NAME>EARTH</CENTER_NAME><REF_FRAME>TEME</REF_FRAME><TIME_SYSTEM>UTC</TIME_SYSTEM><MEAN_ELEMENT_THEORY>SGP4</MEAN_ELEMENT_THEORY></metadata><data><meanElements><EPOCH>2024-12-03T11:04:42.140640</EPOCH><MEAN_MOTION>14.39883106</MEAN_MOTION><ECCENTRICITY>.0001658</ECCENTRICITY><INCLINATION>86.3932</INCLINATION><RA_OF_ASC_NODE>303.8921</RA_OF_ASC_NODE><ARG_OF_PERICENTER>33.5533</ARG_OF_PERICENTER><MEAN_ANOMALY>326.5771</MEAN_ANOMALY></meanElements><tleParameters><EPHEMERIS_TYPE>0</EPHEMERIS_TYPE><CLASSIFICATION_TYPE>U</CLASSIFICATION_TYPE><NORAD_CAT_ID>25078</NORAD_CAT_ID><ELEMENT_SET_NO>999</ELEMENT_SET_NO><REV_AT_EPOCH>41553</REV_AT_EPOCH><BSTAR>.45939E-3</BSTAR><MEAN_MOTION_DOT>.1462E-4</MEAN_MOTION_DOT><MEAN_MOTION_DDOT>0</MEAN_MOTION_DDOT></tleParameters></data></segment></body></omm>
<omm id="CCSDS_OMM_VERS" version="2.0">
<header><CREATION_DATE/><ORIGINATOR/></header><body><segment><metadata><OBJECT_NAME>IRIDIUM 45</OBJECT_NAME><OBJECT_ID>1997-082A</OBJECT_ID><CENTER_NAME>EARTH</CENTER_NAME><REF_FRAME>TEME</REF_FRAME><TIME_SYSTEM>UTC</TIME_SYSTEM><MEAN_ELEMENT_THEORY>SGP4</MEAN_ELEMENT_THEORY></metadata><data><meanElements><EPOCH>2024-12-03T11:39:04.818816</EPOCH><MEAN_MOTION>15.12274165</MEAN_MOTION><ECCENTRICITY>.013848</ECCENTRICITY><INCLINATION>86.3616</INCLINATION><RA_OF_ASC_NODE>142.1968</RA_OF_ASC_NODE><ARG_OF_PERICENTER>340.5545</ARG_OF_PERICENTER><MEAN_ANOMALY>19.0437</MEAN_ANOMALY></meanElements><tleParameters><EPHEMERIS_TYPE>0</EPHEMERIS_TYPE><CLASSIFICATION_TYPE>U</CLASSIFICATION_TYPE><NORAD_CAT_ID>25104</NORAD_CAT_ID><ELEMENT_SET_NO>999</ELEMENT_SET_NO><REV_AT_EPOCH>42236</REV_AT_EPOCH><BSTAR>.11178E-2</BSTAR><MEAN_MOTION_DOT>.24536E-3</MEAN_MOTION_DOT><MEAN_MOTION_DDOT>0</MEAN_MOTION_DDOT></tleParameters></data></segment></body></omm>
<omm id="CCSDS_OMM_VERS" version="2.0">
<header><CREATION_DATE/><ORIGINATOR/></header><body><segment><metadata><OBJECT_NAME>IRIDIUM 24</OBJECT_NAME><OBJECT_ID>1997-082B</OBJECT_ID><CENTER_NAME>EARTH</CENTER_NAME><REF_FRAME>TEME</REF_FRAME><TIME_SYSTEM>UTC</TIME_SYSTEM><MEAN_ELEMENT_THEORY>SGP4</MEAN_ELEMENT_THEORY></metadata><data><meanElements><EPOCH>2024-12-03T14:45:50.659488</EPOCH><MEAN_MOTION>14.41706196</MEAN_MOTION><ECCENTRICITY>.0011849</ECCENTRICITY><INCLINATION>86.3924</INCLINATION><RA_OF_ASC_NODE>163.1968</RA_OF_ASC_NODE><ARG_OF_PERICENTER>14.2135</ARG_OF_PERICENTER><MEAN_ANOMALY>345.9396</MEAN_ANOMALY></meanElements><tleParameters><EPHEMERIS_TYPE>0</EPHEMERIS_TYPE><CLASSIFICATION_TYPE>U</CLASSIFICATION_TYPE><NORAD_CAT_ID>25105</NORAD_CAT_ID><ELEMENT_SET_NO>999</ELEMENT_SET_NO><REV_AT_EPOCH>41503</REV_AT_EPOCH><BSTAR>.3771E-3</BSTAR><MEAN_MOTION_DOT>.1249E-4</MEAN_MOTION_DOT><MEAN_MOTION_DDOT>0</MEAN_MOTION_DDOT></tleParameters></data></segment></body></omm>
<omm id="CCSDS_OMM_VERS" version="2.0">
<header><CREATION_DATE/><ORIGINATOR/></header><body><segment><metadata><OBJECT_NAME>IRIDIUM 51</OBJECT_NAME><OBJECT_ID>1998-018A</OBJECT_ID><CENTER_NAME>EARTH</CENTER_NAME><REF_FRAME>TEME</REF_FRAME><TIME_SYSTEM>UTC</TIME_SYSTEM><MEAN_ELEMENT_THEORY>SGP4</MEAN_ELEMENT_THEORY></metadata><data><meanElements><EPOCH>2024-12-03T13:16:02.261280</EPOCH><MEAN_MOTION>15.23114711</MEAN_MOTION><ECCENTRICITY>.0116777</ECCENTRICITY><INCLINATION>86.3908</INCLINATION><RA_OF_ASC_NODE>151.4256</RA_OF_ASC_NODE><ARG_OF_PERICENTER>273.9040</ARG_OF_PERICENTER><MEAN_ANOMALY>84.8861</MEAN_ANOMALY></meanElements><tleParameters><EPHEMERIS_TYPE>0</EPHEMERIS_TYPE><CLASSIFICATION_TYPE>U</CLASSIFICATION_TYPE><NORAD_CAT_ID>25262</NORAD_CAT_ID><ELEMENT_SET_NO>999</ELEMENT_SET_NO><REV_AT_EPOCH>41708</REV_AT_EPOCH><BSTAR>.13471E-2</BSTAR><MEAN_MOTION_DOT>.3864E-3</MEAN_MOTION_DOT><MEAN_MOTION_DDOT>0</MEAN_MOTION_DDOT></tleParameters></data></segment></body></omm>

</ndm>
