IRIDIUM 36              
1 24967U 97056C   24338.53816160  .00001281  00000+0  42347-3 0  9999
2 24967  86.3969 255.1377 0002075  78.8692 281.2739 14.37269418424114
IRIDIUM 39              
1 25042U 97069D   24338.41804639  .00002064  00000+0  54230-3 0  9997
2 25042  86.3895 295.0728 0015870 236.9042 123.0638 14.48679892420618
IRIDIUM 38              
1 25043U 97069E   24338.49013359  .00001484  00000+0  48690-3 0  9995
2 25043  86.3937 315.5136 0003498  57.3167 302.8368 14.37751811417830
IRIDIUM 42              
1 25077U 97077A   24338.53644850  .00001274  00000+0  43182-3 0  9990
2 25077  86.3943 321.4238 0002792  76.4111 283.7397 14.36015323413116
IRIDIUM 44              
1 25078U 97077B   24338.46159885  .00001462  00000+0  45939-3 0  9993
2 25078  86.3932 303.8921 0001658  33.5533 326.5771 14.39883106415535
IRIDIUM 45              
1 25104U 97082A   24338.48547244  .00024536  00000+0  11178-2 0  9995
2 25104  86.3616 142.1968 0138480 340.5545  19.0437 15.12274165422360
IRIDIUM 24              
1 25105U 97082B   24338.61516967  .00001249  00000+0  37710-3 0  9996
2 25105  86.3924 163.1968 0011849  14.2135 345.9396 14.41706196415031
IRIDIUM 51              
1 25262U 98018A   24338.55280395  .00038640  00000+0  13471-2 0  9998
2 25262  86.3908 151.4256 0116777 273.9040  84.8861 15.23114711417082
